NORAD_CAT_ID,OBJECT_NAME,OBJECT_TYPE,EPOCH,MEAN_MOTION,ECCENTRICITY,INCLINATION,RA_OF_ASC_NODE,ARG_OF_PERICENTER,MEAN_ANOMALY,BSTAR,MEAN_MOTION_DOT,MEAN_MOTION_DDOT,TLE_LINE0,TLE_LINE1,TLE_LINE2,SEMIMAJOR_AXIS,PERIOD,APOGEE,PERIGEE,DECAYED
52112.0,STARLINK-3734,PAYLOAD,2023-03-19 19:34:13,15.08850359,0.0001304,53.2155,273.8008,86.9246,273.1895,2.8596e-05,1.67e-06,0.0,0 STARLINK-3734,1 52112U 22029AA  23078.81543227  .00000167  00000-0  28596-4 0  9996,2 52112  53.2155 273.8008 0001304  86.9246 273.1895 15.08850359 56858,6917.849,95.437,540.616,538.812,0.0
52112.0,STARLINK-3734,PAYLOAD,2023-03-20 19:25:00,15.08838344,0.0001115,53.216,269.3424,73.8925,286.219,5.9173e-05,6.54e-06,0.0,0 STARLINK-3734,1 52112U 22029AA  23079.80903778  .00000654  00000-0  59173-4 0  9993,2 52112  53.2160 269.3424 0001115  73.8925 286.2190 15.08838344 57006,6917.885,95.438,540.522,538.979,0.0
52112.0,STARLINK-3734,PAYLOAD,2023-03-21 04:57:19,15.08839131,0.0001301,53.2145,267.5551,82.28,277.834,4.4716e-05,4.24e-06,0.0,0 STARLINK-3734,1 52112U 22029AA  23080.20647698  .00000424  00000-0  44716-4 0  9997,2 52112  53.2145 267.5551 0001301  82.2800 277.8340 15.08839131 57067,6917.883,95.438,540.648,538.848,0.0
52112.0,STARLINK-3734,PAYLOAD,2023-03-21 19:15:47,15.08845595,0.0001198,53.213,264.8775,80.0906,280.0221,0.00013368,1.841e-05,0.0,0 STARLINK-3734,1 52112U 22029AA  23080.80263231  .00001841  00000-0  13368-3 0  9992,2 52112  53.2130 264.8775 0001198  80.0906 280.0221 15.08845595 57151,6917.863,95.437,540.557,538.9,0.0
52112.0,STARLINK-3734,PAYLOAD,2023-03-22 04:48:06,15.08836935,0.0001495,53.2157,263.0907,70.2451,289.8702,-3.1015e-05,-7.82e-06,0.0,0 STARLINK-3734,1 52112U 22029AA  23081.20007571 -.00000782  00000-0 -31015-4 0  9995,2 52112  53.2157 263.0907 0001495  70.2451 289.8702 15.08836935 57210,6917.89,95.438,540.789,538.721,0.0
52112.0,STARLINK-3734,PAYLOAD,2023-03-22 19:06:34,15.08839905,0.0001038,53.2143,260.4181,81.5301,278.5809,-8.0127e-06,-4.15e-06,0.0,0 STARLINK-3734,1 52112U 22029AA  23081.79623285 -.00000415  00000-0 -80127-5 0  9997,2 52112  53.2143 260.4181 0001038  81.5301 278.5809 15.08839905 57305,6917.881,95.438,540.464,539.028,0.0
52112.0,STARLINK-3734,PAYLOAD,2023-03-23 04:38:53,15.08835422,0.0001432,53.2155,258.6318,78.4824,281.6329,-4.2845e-05,-9.7e-06,0.0,0 STARLINK-3734,1 52112U 22029AA  23082.19367799 -.00000970  00000-0 -42845-4 0  9997,2 52112  53.2155 258.6318 0001432  78.4824 281.6329 15.08835422 57360,6917.894,95.438,540.75,538.769,0.0
52112.0,STARLINK-3734,PAYLOAD,2023-03-23 18:57:21,15.08848165,0.0001146,53.2149,255.9577,88.3951,271.7173,4.1636e-05,3.75e-06,0.0,0 STARLINK-3734,1 52112U 22029AA  23082.78983179  .00000375  00000-0  41636-4 0  9992,2 52112  53.2149 255.9577 0001146  88.3951 271.7173 15.08848165 57458,6917.855,95.437,540.513,538.928,0.0
52112.0,STARLINK-3734,PAYLOAD,2023-03-24 18:48:08,15.08854571,0.0001214,53.2152,251.497,88.6973,271.4158,0.00032185,4.84e-05,0.0,0 STARLINK-3734,1 52112U 22029AA  23083.78342872  .00004840  00000-0  32185-3 0  9991,2 52112  53.2152 251.4970 0001214  88.6973 271.4158 15.08854571 57608,6917.836,95.437,540.541,538.861,0.0
52112.0,STARLINK-3734,PAYLOAD,2023-03-25 04:20:27,15.08851901,0.0001631,53.2161,249.7129,75.1351,284.9822,0.00027893,4.155e-05,0.0,0 STARLINK-3734,1 52112U 22029AA  23084.18086838  .00004155  00000-0  27893-3 0  9992,2 52112  53.2161 249.7129 0001631  75.1351 284.9822 15.08851901 57665,6917.844,95.437,540.837,538.581,0.0
52112.0,STARLINK-3734,PAYLOAD,2023-03-25 17:03:31,15.08863201,0.0001617,53.2168,247.3361,68.9816,291.1349,0.00039698,6.04e-05,0.0,0 STARLINK-3734,1 52112U 22029AA  23084.71077994  .00006040  00000-0  39698-3 0  9995,2 52112  53.2168 247.3361 0001617  68.9816 291.1349 15.08863201 57743,6917.809,95.436,540.793,538.556,0.0
52112.0,STARLINK-3734,PAYLOAD,2023-03-26 04:11:13,15.08833352,0.0001333,53.2163,245.2533,73.1767,286.9371,-0.00052751,-8.672e-05,0.0,0 STARLINK-3734,1 52112U 22029AA  23085.17446164 -.00008672  00000-0 -52751-3 0  9995,2 52112  53.2163 245.2533 0001333  73.1767 286.9371 15.08833352 57813,6917.901,95.438,540.688,538.844,0.0
52112.0,STARLINK-3734,PAYLOAD,2023-03-26 16:54:19,15.08819876,0.0001254,53.2157,242.8723,94.8361,265.2774,-0.00043264,-7.163e-05,0.0,0 STARLINK-3734,1 52112U 22029AA  23085.70439248 -.00007163  00000-0 -43264-3 0  9992,2 52112  53.2157 242.8723 0001254  94.8361 265.2774 15.08819876 57892,6917.942,95.439,540.674,538.939,0.0
52112.0,STARLINK-3734,PAYLOAD,2023-03-26 21:40:29,15.08823641,0.0001331,53.2158,241.9796,102.296,257.8181,-0.00026744,-4.54e-05,0.0,0 STARLINK-3734,1 52112U 22029AA  23085.90311459 -.00004540  00000-0 -26744-3 0  9997,2 52112  53.2158 241.9796 0001331 102.2960 257.8181 15.08823641 57926,6917.93,95.439,540.716,538.875,0.0
52112.0,STARLINK-3734,PAYLOAD,2023-03-27 13:34:20,15.08837242,0.0001354,53.2149,239.0077,82.9608,277.1538,0.00021327,3.108e-05,0.0,0 STARLINK-3734,1 52112U 22029AA  23086.56551756  .00003108  00000-0  21327-3 0  9995,2 52112  53.2149 239.0077 0001354  82.9608 277.1538 15.08837242 58029,6917.889,95.438,540.691,538.817,0.0
52112.0,STARLINK-3734,PAYLOAD,2023-03-27 16:45:07,15.08837085,0.0001326,53.2157,238.4115,91.6217,268.4927,0.00083228,0.00012982,0.0,0 STARLINK-3734,1 52112U 22029AA  23086.69800207  .00012982  00000-0  83228-3 0  9995,2 52112  53.2157 238.4115 0001326  91.6217 268.4927 15.08837085 58048,6917.889,95.438,540.672,538.837,0.0
52112.0,STARLINK-3734,PAYLOAD,2023-03-28 13:25:08,15.08845811,0.0001089,53.2156,234.5463,86.9828,273.1289,0.00050994,7.838e-05,0.0,0 STARLINK-3734,1 52112U 22029AA  23087.55912238  .00007838  00000-0  50994-3 0  9997,2 52112  53.2156 234.5463 0001089  86.9828 273.1289 15.08845811 58175,6917.863,95.437,540.481,538.974,0.0
52112.0,STARLINK-3734,PAYLOAD,2023-03-28 16:35:54,15.08855949,0.000106,53.2155,233.9523,83.1623,276.9489,0.00093883,0.00014692,0.0,0 STARLINK-3734,1 52112U 22029AA  23087.69160095  .00014692  00000-0  93883-3 0  9998,2 52112  53.2155 233.9523 0001060  83.1623 276.9489 15.08855949 58193,6917.832,95.437,540.43,538.963,0.0
52112.0,STARLINK-3734,PAYLOAD,2023-03-29 02:08:13,15.08829137,8.6e-05,53.2156,232.1677,108.6866,251.422,0.00055816,8.604e-05,0.0,0 STARLINK-3734,1 52112U 22029AA  23088.08904144  .00008604  00000-0  55816-3 0  9993,2 52112  53.2156 232.1677 0000860 108.6866 251.4220 15.08829137 58252,6917.914,95.438,540.374,539.184,0.0
52112.0,STARLINK-3734,PAYLOAD,2023-03-29 13:15:55,15.08850382,9.26e-05,53.2151,230.0864,85.185,274.9247,0.0014765,0.00023295,0.0,0 STARLINK-3734,1 52112U 22029AA  23088.55272314  .00023295  00000-0  14765-2 0  9992,2 52112  53.2151 230.0864 0000926  85.1850 274.9247 15.08850382 58320,6917.849,95.437,540.354,539.073,0.0
52112.0,STARLINK-3734,PAYLOAD,2023-03-29 19:37:27,15.08871086,9.67e-05,53.2147,228.8974,92.6241,267.4862,0.0022926,0.00036419,0.0,0 STARLINK-3734,1 52112U 22029AA  23088.81767875  .00036419  00000-0  22926-2 0  9992,2 52112  53.2147 228.8974 0000967  92.6241 267.4862 15.08871086 58362,6917.785,95.436,540.319,538.981,0.0
52112.0,STARLINK-3734,PAYLOAD,2023-03-30 19:28:14,15.08864802,0.0001337,53.215,224.4364,91.2532,268.8613,0.0019478,0.00030868,0.0,0 STARLINK-3734,1 52112U 22029AA  23089.81128103  .00030868  00000-0  19478-2 0  9998,2 52112  53.2150 224.4364 0001337  91.2532 268.8613 15.08864802 58515,6917.805,95.436,540.594,538.745,0.0
52112.0,STARLINK-3734,PAYLOAD,2023-03-31 01:49:46,15.08838792,0.0001,53.2148,223.2481,189.7048,170.3925,-0.00052087,-8.567e-05,0.0,0 STARLINK-3734,1 52112U 22029AA  23090.07623604 -.00008567  00000-0 -52087-3 0  9991,2 52112  53.2148 223.2481 0001000 189.7048 170.3925 15.08838792 58557,6917.884,95.438,540.441,539.057,0.0
52112.0,STARLINK-3734,PAYLOAD,2023-03-31 14:32:52,15.08862076,0.0001035,53.2137,220.8686,103.06,257.0507,0.0025532,0.00040605,0.0,0 STARLINK-3734,1 52112U 22029AA  23090.60616305  .00040605  00000-0  25532-2 0  9991,2 52112  53.2137 220.8686 0001035 103.0600 257.0507 15.08862076 58636,6917.813,95.436,540.394,538.962,0.0
52112.0,STARLINK-3734,PAYLOAD,2023-04-01 01:40:33,15.08829804,9.71e-05,53.2149,218.7882,187.5492,172.5485,-0.0010122,-0.00016356,0.0,0 STARLINK-3734,1 52112U 22029AA  23091.06983648 -.00016356  00000-0 -10122-2 0  9996,2 52112  53.2149 218.7882 0000971 187.5492 172.5485 15.08829804 58703,6917.912,95.438,540.448,539.105,0.0
52112.0,STARLINK-3734,PAYLOAD,2023-04-01 12:48:17,15.08823903,0.0001064,53.2136,216.705,125.8417,234.2674,0.0014996,0.00023648,0.0,0 STARLINK-3734,1 52112U 22029AA  23091.53353078  .00023648  00000-0  14996-2 0  9999,2 52112  53.2136 216.7050 0001064 125.8417 234.2674 15.08823903 58777,6917.93,95.439,540.531,539.059,0.0
52112.0,STARLINK-3734,PAYLOAD,2023-04-01 17:34:26,15.08837877,0.0001241,53.2139,215.8128,114.8821,245.23,0.0025177,0.00040007,0.0,0 STARLINK-3734,1 52112U 22029AA  23091.73225380  .00040007  00000-0  25177-2 0  9996,2 52112  53.2139 215.8128 0001241 114.8821 245.2300 15.08837877 58807,6917.887,95.438,540.61,538.893,0.0
52112.0,STARLINK-3734,PAYLOAD,2023-04-01 20:45:12,15.08851771,0.0001176,53.2135,215.2177,115.2248,244.8866,0.0026974,0.00042917,0.0,0 STARLINK-3734,1 52112U 22029AA  23091.86473280  .00042917  00000-0  26974-2 0  9992,2 52112  53.2135 215.2177 0001176 115.2248 244.8866 15.08851771 58829,6917.844,95.437,540.523,538.896,0.0
52112.0,STARLINK-3734,PAYLOAD,2023-04-02 12:39:04,15.08858214,0.0001548,53.2152,212.2458,97.1656,262.9512,0.0017999,0.00028488,0.0,0 STARLINK-3734,1 52112U 22029AA  23092.52713606  .00028488  00000-0  17999-2 0  9999,2 52112  53.2152 212.2458 0001548  97.1656 262.9512 15.08858214 58920,6917.825,95.436,540.761,538.619,0.0
52112.0,STARLINK-3734,PAYLOAD,2023-04-02 14:14:27,15.08853826,0.0001473,53.2156,211.9483,86.1855,273.9305,0.0011247,0.00017664,0.0,0 STARLINK-3734,1 52112U 22029AA  23092.59337538  .00017664  00000-0  11247-2 0  9996,2 52112  53.2156 211.9483 0001473  86.1855 273.9305 15.08853826 58931,6917.838,95.437,540.722,538.684,0.0
